NORAD_CAT_ID,OBJECT_NAME,OBJECT_TYPE,EPOCH,MEAN_MOTION,ECCENTRICITY,INCLINATION,RA_OF_ASC_NODE,ARG_OF_PERICENTER,MEAN_ANOMALY,BSTAR,MEAN_MOTION_DOT,MEAN_MOTION_DDOT,TLE_LINE0,TLE_LINE1,TLE_LINE2,SEMIMAJOR_AXIS,PERIOD,APOGEE,PERIGEE,DECAYED
52129.0,STARLINK-3661,PAYLOAD,2023-12-29 12:07:24,15.08843917,0.0001507,53.2175,65.7777,78.278,281.8381,1.27e-05,-8.6e-07,0.0,0 STARLINK-3661,1 52129U 22029AT  23363.50514212 -.00000086  00000-0  12700-4 0  9990,2 52129  53.2175  65.7777 0001507  78.2780 281.8381 15.08843917 99980,6917.868,95.437,540.776,538.691,0.0
52129.0,STARLINK-3661,PAYLOAD,2023-12-30 10:22:47,15.08849901,0.0001501,53.2176,61.6151,80.8414,279.2748,8.7385e-05,1.103e-05,0.0,0 STARLINK-3661,1 52129U 22029AT  23364.43249684  .00001103  00000-0  87385-4 0  9992,2 52129  53.2176  61.6151 0001501  80.8414 279.2748 15.08849901100125,6917.85,95.437,540.753,538.677,0.0
52129.0,STARLINK-3661,PAYLOAD,2023-12-31 03:52:02,15.08894643,0.000173,53.2185,58.348,51.978,308.1369,-0.0007117,-0.00011614,0.0,0 STARLINK-3661,1 52129U 22029AT  23365.16113463 -.00011614  00000-0 -71170-3 0  9992,2 52129  53.2185  58.3480 0001730  51.9780 308.1369 15.08894643100238,6917.713,95.434,540.775,538.382,0.0
52129.0,STARLINK-3661,PAYLOAD,2023-12-31 10:13:35,15.08832892,0.0001581,53.218,57.1552,74.0337,286.0829,0.00011335,1.516e-05,0.0,0 STARLINK-3661,1 52129U 22029AT  23365.42610752  .00001516  00000-0  11335-3 0  9999,2 52129  53.2180  57.1552 0001581  74.0337 286.0829 15.08832892100275,6917.902,95.438,540.861,538.673,0.0
52129.0,STARLINK-3661,PAYLOAD,2023-12-31 13:24:22,15.08802965,0.0001686,53.2178,56.5585,88.7329,271.3856,0.00060209,9.298e-05,0.0,0 STARLINK-3661,1 52129U 22029AT  23365.55859691  .00009298  00000-0  60209-3 0  9999,2 52129  53.2178  56.5585 0001686  88.7329 271.3856 15.08802965100297,6917.994,95.44,541.025,538.692,0.0
52129.0,STARLINK-3661,PAYLOAD,2024-01-01 03:42:49,15.08850835,0.0001553,53.2174,53.8815,91.1102,269.0068,-0.00015471,-2.75e-05,0.0,0 STARLINK-3661,1 52129U 22029AT  24001.15474492 -.00002750  00000-0 -15471-3 0  9994,2 52129  53.2174  53.8815 0001553  91.1102 269.0068 15.08850835100387,6917.847,95.437,540.787,538.638,0.0
52129.0,STARLINK-3661,PAYLOAD,2024-01-01 10:04:22,15.08846905,0.000153,53.2176,52.6923,95.6746,264.442,2.017e-05,3.3e-07,0.0,0 STARLINK-3661,1 52129U 22029AT  24001.41969992  .00000033  00000-0  20170-4 0  9990,2 52129  53.2176  52.6923 0001530  95.6746 264.4420 15.08846905100423,6917.859,95.437,540.783,538.666,0.0
52129.0,STARLINK-3661,PAYLOAD,2024-01-02 03:33:37,15.08835432,0.0001629,53.2178,49.4219,96.9791,263.1387,5.9828e-05,6.64e-06,0.0,0 STARLINK-3661,1 52129U 22029AT  24002.14834652  .00000664  00000-0  59828-4 0  9997,2 52129  53.2178  49.4219 0001629  96.9791 263.1387 15.08835432100533,6917.894,95.438,540.886,538.632,0.0
52129.0,STARLINK-3661,PAYLOAD,2024-01-02 09:55:09,15.08838244,0.0001599,53.218,48.2327,99.7599,260.3573,6.8258e-05,7.98e-06,0.0,0 STARLINK-3661,1 52129U 22029AT  24002.41330517  .00000798  00000-0  68258-4 0  9993,2 52129  53.2180  48.2327 0001599  99.7599 260.3573 15.08838244100570,6917.886,95.438,540.857,538.645,0.0
52129.0,STARLINK-3661,PAYLOAD,2024-01-03 08:10:33,15.08836898,0.0001644,53.2183,44.0701,105.9118,254.2055,1.4767e-05,-5.3e-07,0.0,0 STARLINK-3661,1 52129U 22029AT  24003.34066938 -.00000053  00000-0  14767-4 0  9990,2 52129  53.2183  44.0701 0001644 105.9118 254.2055 15.08836898100717,6917.89,95.438,540.892,538.618,0.0
52129.0,STARLINK-3661,PAYLOAD,2024-01-03 12:56:43,15.0883891,0.000167,53.218,43.1774,109.1879,250.9294,2.7725e-05,1.53e-06,0.0,0 STARLINK-3661,1 52129U 22029AT  24003.53938767  .00000153  00000-0  27725-4 0  9997,2 52129  53.2180  43.1774 0001670 109.1879 250.9294 15.08838910100741,6917.884,95.438,540.904,538.593,0.0
52129.0,STARLINK-3661,PAYLOAD,2024-01-04 11:12:06,15.08846638,0.0001788,53.2177,39.0139,107.8277,252.291,-5.2807e-05,-1.129e-05,0.0,0 STARLINK-3661,1 52129U 22029AT  24004.46674641 -.00001129  00000-0 -52807-4 0  9993,2 52129  53.2177  39.0139 0001788 107.8277 252.2910 15.08846638100884,6917.86,95.437,540.962,538.488,0.0
52129.0,STARLINK-3661,PAYLOAD,2024-01-05 01:30:35,15.08831757,0.0001788,53.2163,36.3383,94.1612,265.9584,0.00011085,1.476e-05,0.0,0 STARLINK-3661,1 52129U 22029AT  24005.06291296  .00001476  00000-0  11085-3 0  9996,2 52129  53.2163  36.3383 0001788  94.1612 265.9584 15.08831757100975,6917.906,95.438,541.008,538.534,0.0
52129.0,STARLINK-3661,PAYLOAD,2024-01-05 09:27:31,15.08836792,0.0001457,53.2177,34.8515,95.3329,264.7829,4.647e-05,4.52e-06,0.0,0 STARLINK-3661,1 52129U 22029AT  24005.39411295  .00000452  00000-0  46470-4 0  9995,2 52129  53.2177  34.8515 0001457  95.3329 264.7829 15.08836792101021,6917.89,95.438,540.763,538.747,0.0
52129.0,STARLINK-3661,PAYLOAD,2024-01-06 10:53:40,15.08850451,0.0001441,53.2175,30.0935,92.2682,267.8475,8.2524e-05,1.026e-05,0.0,0 STARLINK-3661,1 52129U 22029AT  24006.45394264  .00001026  00000-0  82524-4 0  9997,2 52129  53.2175  30.0935 0001441  92.2682 267.8475 15.08850451101180,6917.848,95.437,540.71,538.717,0.0
52129.0,STARLINK-3661,PAYLOAD,2024-01-06 23:36:46,15.08837974,0.0001451,53.2173,27.7138,92.8682,267.2477,6.0104e-05,6.69e-06,0.0,0 STARLINK-3661,1 52129U 22029AT  24006.98387031  .00000669  00000-0  60104-4 0  9991,2 52129  53.2173  27.7138 0001451  92.8682 267.2477 15.08837974101263,6917.887,95.438,540.755,538.748,0.0
52129.0,STARLINK-3661,PAYLOAD,2024-01-07 10:44:27,15.08847175,0.0001416,53.2174,25.6309,96.0905,264.0248,6.7323e-05,7.84e-06,0.0,0 STARLINK-3661,1 52129U 22029AT  24007.44754285  .00000784  00000-0  67323-4 0  9990,2 52129  53.2174  25.6309 0001416  96.0905 264.0248 15.08847175101339,6917.858,95.437,540.703,538.744,0.0
52129.0,STARLINK-3661,PAYLOAD,2024-01-08 04:13:42,15.08838012,0.0001914,53.2172,22.3605,116.668,243.4508,-2.5194e-05,-6.89e-06,0.0,0 STARLINK-3661,1 52129U 22029AT  24008.17619092 -.00000689  00000-0 -25194-4 0  9993,2 52129  53.2172  22.3605 0001914 116.6680 243.4508 15.08838012101444,6917.886,95.438,541.076,538.427,0.0
52129.0,STARLINK-3661,PAYLOAD,2024-01-08 05:49:06,15.08838086,0.0001697,53.2174,22.0634,111.1229,248.9944,-2.1203e-05,-6.25e-06,0.0,0 STARLINK-3661,1 52129U 22029AT  24008.24243119 -.00000625  00000-0 -21203-4 0  9991,2 52129  53.2174  22.0634 0001697 111.1229 248.9944 15.08838086101458,6917.886,95.438,540.925,538.577,0.0
52129.0,STARLINK-3661,PAYLOAD,2024-01-09 10:26:01,15.08843225,0.0002138,53.2183,16.7097,134.4387,225.678,6.1738e-05,6.95e-06,0.0,0 STARLINK-3661,1 52129U 22029AT  24009.43474466  .00000695  00000-0  61738-4 0  9996,2 52129  53.2183  16.7097 0002138 134.4387 225.6780 15.08843225101636,6917.871,95.437,541.215,538.256,0.0
52129.0,STARLINK-3661,PAYLOAD,2024-01-10 07:06:03,15.08820766,0.0001786,53.2179,12.8412,115.2097,244.908,0.00040877,6.22e-05,0.0,0 STARLINK-3661,1 52129U 22029AT  24010.29587269  .00006220  00000-0  40877-3 0  9998,2 52129  53.2179  12.8412 0001786 115.2097 244.9080 15.08820766101768,6917.939,95.439,541.04,538.569,0.0
52129.0,STARLINK-3661,PAYLOAD,2024-01-11 03:46:04,15.08840403,0.0001506,53.2176,8.9767,109.3559,250.7596,3.5857e-05,2.83e-06,0.0,0 STARLINK-3661,1 52129U 22029AT  24011.15699176  .00000283  00000-0  35857-4 0  9991,2 52129  53.2176   8.9767 0001506 109.3559 250.7596 15.08840403101892,6917.879,95.438,540.786,538.702,0.0
52129.0,STARLINK-3661,PAYLOAD,2024-01-11 05:21:27,15.08842403,0.000152,53.2178,8.6806,111.8208,248.2946,3.13e-05,2.1e-06,0.0,0 STARLINK-3661,1 52129U 22029AT  24011.22323041  .00000210  00000-0  31300-4 0  9993,2 52129  53.2178   8.6806 0001520 111.8208 248.2946 15.08842403101905,6917.873,95.437,540.79,538.687,0.0
52129.0,STARLINK-3661,PAYLOAD,2024-01-12 03:36:51,15.08837171,0.0001474,53.2173,4.5162,108.3801,251.7351,-1.238e-05,-4.85e-06,0.0,0 STARLINK-3661,1 52129U 22029AT  24012.15059713 -.00000485  00000-0 -12380-4 0  9991,2 52129  53.2173   4.5162 0001474 108.3801 251.7351 15.08837171102049,6917.889,95.438,540.774,538.734,0.0
52129.0,STARLINK-3661,PAYLOAD,2024-01-12 08:23:00,15.08845331,0.0001431,53.2179,3.6265,109.8257,250.289,5.6752e-05,6.15e-06,0.0,0 STARLINK-3661,1 52129U 22029AT  24012.34931004  .00000615  00000-0  56752-4 0  9998,2 52129  53.2179   3.6265 0001431 109.8257 250.2890 15.08845331102075,6917.864,95.437,540.719,538.739,0.0
52129.0,STARLINK-3661,PAYLOAD,2024-01-13 03:27:38,15.08838418,0.0001441,53.2179,0.0578,86.9046,273.2111,5.0229e-05,5.12e-06,0.0,0 STARLINK-3661,1 52129U 22029AT  24013.14419854  .00000512  00000-0  50229-4 0  9990,2 52129  53.2179   0.0578 0001441  86.9046 273.2111 15.08838418102197,6917.885,95.438,540.747,538.753,0.0
52129.0,STARLINK-3661,PAYLOAD,2024-01-13 06:38:24,15.08845073,0.0001474,53.218,359.4651,84.4513,275.6647,0.0001073,1.42e-05,0.0,0 STARLINK-3661,1 52129U 22029AT  24013.27667332  .00001420  00000-0  10730-3 0  9991,2 52129  53.2180 359.4651 0001474  84.4513 275.6647 15.08845073102218,6917.865,95.437,540.75,538.71,0.0
52129.0,STARLINK-3661,PAYLOAD,2024-01-14 03:18:25,15.08840291,0.0001401,53.2184,355.6009,92.6941,267.4212,0.00011355,1.52e-05,0.0,0 STARLINK-3661,1 52129U 22029AT  24014.13779815  .00001520  00000-0  11355-3 0  9992,2 52129  53.2184 355.6009 0001401  92.6941 267.4212 15.08840291102341,6917.879,95.438,540.714,538.775,0.0
52129.0,STARLINK-3661,PAYLOAD,2024-01-14 08:04:34,15.08851753,0.0001455,53.2183,354.7081,97.3803,262.7354,0.00020427,2.966e-05,0.0,0 STARLINK-3661,1 52129U 22029AT  24014.33650816  .00002966  00000-0  20427-3 0  9998,2 52129  53.2183 354.7081 0001455  97.3803 262.7354 15.08851753102371,6917.844,95.437,540.716,538.703,0.0
52129.0,STARLINK-3661,PAYLOAD,2024-01-15 03:09:12,15.08844425,0.0001858,53.2199,351.1339,114.9961,245.1225,0.00010451,1.376e-05,0.0,0 STARLINK-3661,1 52129U 22029AT  24015.13139119  .00001376  00000-0  10451-3 0  9995,2 52129  53.2199 351.1339 0001858 114.9961 245.1225 15.08844425102496,6917.867,95.437,541.017,538.447,0.0
